NORAD_CAT_ID,OBJECT_NAME,OBJECT_TYPE,EPOCH,MEAN_MOTION,ECCENTRICITY,INCLINATION,RA_OF_ASC_NODE,ARG_OF_PERICENTER,MEAN_ANOMALY,BSTAR,MEAN_MOTION_DOT,MEAN_MOTION_DDOT,TLE_LINE0,TLE_LINE1,TLE_LINE2,SEMIMAJOR_AXIS,PERIOD,APOGEE,PERIGEE,DECAYED
55755.0,STARLINK-5619,PAYLOAD,2023-09-28 13:43:00,14.98326204,0.0002789,70.0001,336.1627,256.0745,104.0104,1.9402e-05,1.39e-06,0.0,0 STARLINK-5619,1 55755U 23028Q   23271.57153672  .00000139  00000-0  19402-4 0  9996,2 55755  70.0001 336.1627 0002789 256.0745 104.0104 14.98326204 32262,6950.205,96.107,574.008,570.131,0.0
55755.0,STARLINK-5619,PAYLOAD,2023-09-28 15:19:08,14.9832698,0.0002792,70.0001,335.9941,253.9315,106.1537,2.791e-05,2.4e-06,0.0,0 STARLINK-5619,1 55755U 23028Q   23271.63829598  .00000240  00000-0  27910-4 0  9996,2 55755  70.0001 335.9941 0002792 253.9315 106.1537 14.98326980 32276,6950.202,96.107,574.008,570.127,0.0
55755.0,STARLINK-5619,PAYLOAD,2023-09-29 13:45:01,14.98332805,0.0002778,70.0,333.6375,253.8788,106.2066,2.7275e-05,2.33e-06,0.0,0 STARLINK-5619,1 55755U 23028Q   23272.57293143  .00000233  00000-0  27275-4 0  9997,2 55755  70.0000 333.6375 0002778 253.8788 106.2066 14.98332805 32415,6950.184,96.107,573.98,570.118,0.0
55755.0,STARLINK-5619,PAYLOAD,2023-09-30 05:46:21,14.98334932,0.0002919,69.9994,331.9534,256.9213,103.162,0.00016121,1.831e-05,0.0,0 STARLINK-5619,1 55755U 23028Q   23273.24052510  .00001831  00000-0  16121-3 0  9995,2 55755  69.9994 331.9534 0002919 256.9213 103.1620 14.98334932 32512,6950.178,96.107,574.071,570.014,0.0
55755.0,STARLINK-5619,PAYLOAD,2023-09-30 13:47:01,14.98337593,0.0002925,69.9993,331.1114,260.027,100.0559,0.00018459,2.111e-05,0.0,0 STARLINK-5619,1 55755U 23028Q   23273.57432243  .00002111  00000-0  18459-3 0  9994,2 55755  69.9993 331.1114 0002925 260.0270 100.0559 14.98337593 32561,6950.169,96.107,574.067,570.001,0.0
55755.0,STARLINK-5619,PAYLOAD,2023-10-01 10:36:46,14.98331528,0.0002836,69.9994,328.9217,268.2348,91.8486,4.8879e-05,4.9e-06,0.0,0 STARLINK-5619,1 55755U 23028Q   23274.44220793  .00000490  00000-0  48879-4 0  9994,2 55755  69.9994 328.9217 0002836 268.2348  91.8486 14.98331528 32699,6950.188,96.107,574.024,570.082,0.0
55755.0,STARLINK-5619,PAYLOAD,2023-10-01 12:12:54,14.98330282,0.0002764,69.9994,328.7533,267.9279,92.1563,7.1271e-05,7.58e-06,0.0,0 STARLINK-5619,1 55755U 23028Q   23274.50896808  .00000758  00000-0  71271-4 0  9996,2 55755  69.9994 328.7533 0002764 267.9279  92.1563 14.98330282 32705,6950.192,96.107,573.978,570.136,0.0
55755.0,STARLINK-5619,PAYLOAD,2023-10-01 13:49:02,14.98332371,0.0002938,69.9993,328.5853,270.9893,89.0929,4.5672e-05,4.52e-06,0.0,0 STARLINK-5619,1 55755U 23028Q   23274.57572702  .00000452  00000-0  45672-4 0  9994,2 55755  69.9993 328.5853 0002938 270.9893  89.0929 14.98332371 32719,6950.186,96.107,574.093,570.009,0.0
55755.0,STARLINK-5619,PAYLOAD,2023-10-02 02:38:08,14.98262785,0.0002287,70.0,327.2397,278.0606,82.0293,0.0010354,0.00012261,0.0,0 STARLINK-5619,1 55755U 23028Q   23275.10981529  .00012261  00000-0  10354-2 0  9993,2 55755  70.0000 327.2397 0002287 278.0606  82.0293 14.98262785 32794,6950.401,96.111,573.855,570.676,0.0
55755.0,STARLINK-5619,PAYLOAD,2023-10-02 10:38:48,14.98306286,0.0002603,69.9995,326.3974,272.7503,87.3358,0.00028582,3.317e-05,0.0,0 STARLINK-5619,1 55755U 23028Q   23275.44361718  .00003317  00000-0  28582-3 0  9997,2 55755  69.9995 326.3974 0002603 272.7503  87.3358 14.98306286 32845,6950.266,96.109,573.94,570.322,0.0
55755.0,STARLINK-5619,PAYLOAD,2023-10-02 20:15:36,14.98323456,0.0002653,69.9992,325.3877,265.4801,94.6055,6.7085e-05,7.07e-06,0.0,0 STARLINK-5619,1 55755U 23028Q   23275.84417284  .00000707  00000-0  67085-4 0  9993,2 55755  69.9992 325.3877 0002653 265.4801  94.6055 14.98323456 32908,6950.213,96.107,573.922,570.234,0.0
55755.0,STARLINK-5619,PAYLOAD,2023-10-03 04:16:16,14.98329998,0.000289,69.9988,324.5458,273.823,86.2599,5.6526e-05,5.82e-06,0.0,0 STARLINK-5619,1 55755U 23028Q   23276.17796828  .00000582  00000-0  56526-4 0  9993,2 55755  69.9988 324.5458 0002890 273.8230  86.2599 14.98329998 32953,6950.193,96.107,574.067,570.049,0.0
55755.0,STARLINK-5619,PAYLOAD,2023-10-03 12:16:56,14.98332506,0.000288,69.9986,323.7043,272.5523,87.5307,6.5357e-05,6.87e-06,0.0,0 STARLINK-5619,1 55755U 23028Q   23276.51176642  .00000687  00000-0  65357-4 0  9995,2 55755  69.9986 323.7043 0002880 272.5523  87.5307 14.98332506 33009,6950.185,96.107,574.052,570.048,0.0
55755.0,STARLINK-5619,PAYLOAD,2023-10-04 10:42:49,14.98332153,0.0002934,69.9982,321.3477,268.9754,91.1069,0.00014886,1.684e-05,0.0,0 STARLINK-5619,1 55755U 23028Q   23277.44640451  .00001684  00000-0  14886-3 0  9990,2 55755  69.9982 321.3477 0002934 268.9754  91.1069 14.98332153 33144,6950.186,96.107,574.09,570.012,0.0
55755.0,STARLINK-5619,PAYLOAD,2023-10-04 12:18:57,14.98333378,0.0002926,69.9983,321.1794,269.3543,90.728,0.00016032,1.821e-05,0.0,0 STARLINK-5619,1 55755U 23028Q   23277.51316352  .00001821  00000-0  16032-3 0  9996,2 55755  69.9983 321.1794 0002926 269.3543  90.7280 14.98333378 33158,6950.182,96.107,574.081,570.014,0.0
55755.0,STARLINK-5619,PAYLOAD,2023-10-04 20:19:37,14.98330682,0.0002929,69.9982,320.3387,269.8282,90.2541,9.3233e-05,1.02e-05,0.0,0 STARLINK-5619,1 55755U 23028Q   23277.84696668  .00001020  00000-0  93233-4 0  9993,2 55755  69.9982 320.3387 0002929 269.8282  90.2541 14.98330682 33200,6950.191,96.107,574.091,570.02,0.0
55755.0,STARLINK-5619,PAYLOAD,2023-10-05 10:44:50,14.98330023,0.0002752,69.9985,318.8225,272.4064,87.678,-6.9154e-06,-1.75e-06,0.0,0 STARLINK-5619,1 55755U 23028Q   23278.44780976 -.00000175  00000-0 -69154-5 0  9994,2 55755  69.9985 318.8225 0002752 272.4064  87.6780 14.98330023 33291,6950.193,96.107,573.971,570.145,0.0
55755.0,STARLINK-5619,PAYLOAD,2023-10-05 12:20:58,14.98330897,0.0002722,69.9987,318.6544,272.172,87.9127,6.1465e-06,-2e-07,0.0,0 STARLINK-5619,1 55755U 23028Q   23278.51456873 -.00000020  00000-0  61465-5 0  9993,2 55755  69.9987 318.6544 0002722 272.1720  87.9127 14.98330897 33307,6950.19,96.107,573.947,570.163,0.0
55755.0,STARLINK-5619,PAYLOAD,2023-10-05 20:21:39,14.98328555,0.0002738,69.9986,317.8129,278.6083,81.4766,-6.1357e-06,-1.66e-06,0.0,0 STARLINK-5619,1 55755U 23028Q   23278.84837098 -.00000166  00000-0 -61357-5 0  9993,2 55755  69.9986 317.8129 0002738 278.6083  81.4766 14.98328555 33357,6950.197,96.107,573.965,570.159,0.0
55755.0,STARLINK-5619,PAYLOAD,2023-10-06 10:46:51,14.98328719,0.0002746,69.9981,316.2966,267.0489,93.0355,4.4385e-05,4.37e-06,0.0,0 STARLINK-5619,1 55755U 23028Q   23279.44920821  .00000437  00000-0  44385-4 0  9997,2 55755  69.9981 316.2966 0002746 267.0489  93.0355 14.98328719 33440,6950.197,96.107,573.97,570.153,0.0
55755.0,STARLINK-5619,PAYLOAD,2023-10-06 12:22:59,14.98332723,0.0002826,69.9982,316.1282,268.001,92.0826,2.208e-06,-6.7e-07,0.0,0 STARLINK-5619,1 55755U 23028Q   23279.51596681 -.00000067  00000-0  22080-5 0  9997,2 55755  69.9982 316.1282 0002826 268.0010  92.0826 14.98332723 33454,6950.184,96.107,574.014,570.085,0.0
55755.0,STARLINK-5619,PAYLOAD,2023-10-07 10:48:52,14.98328946,0.0002828,69.998,313.7713,269.3401,90.7434,0.00012532,1.403e-05,0.0,0 STARLINK-5619,1 55755U 23028Q   23280.45060593  .00001403  00000-0  12532-3 0  9993,2 55755  69.9980 313.7713 0002828 269.3401  90.7434 14.98328946 33591,6950.196,96.107,574.027,570.096,0.0
55755.0,STARLINK-5619,PAYLOAD,2023-10-07 12:25:00,14.98332926,0.0002854,69.998,313.603,270.3382,89.745,7.546e-05,8.08e-06,0.0,0 STARLINK-5619,1 55755U 23028Q   23280.51736461  .00000808  00000-0  75460-4 0  9992,2 55755  69.9980 313.6030 0002854 270.3382  89.7450 14.98332926 33602,6950.184,96.107,574.032,570.065,0.0
55755.0,STARLINK-5619,PAYLOAD,2023-10-08 10:50:53,14.9833094,0.0002803,69.9981,311.2469,269.8882,90.1956,5.2824e-05,5.37e-06,0.0,0 STARLINK-5619,1 55755U 23028Q   23281.45200694  .00000537  00000-0  52824-4 0  9998,2 55755  69.9981 311.2469 0002803 269.8882  90.1956 14.98330940 33741,6950.19,96.107,574.003,570.107,0.0
55755.0,STARLINK-5619,PAYLOAD,2023-10-08 12:27:01,14.98331913,0.0002797,69.9982,311.0785,269.9785,90.1054,6.3154e-05,6.61e-06,0.0,0 STARLINK-5619,1 55755U 23028Q   23281.51876607  .00000661  00000-0  63154-4 0  9994,2 55755  69.9982 311.0785 0002797 269.9785  90.1054 14.98331913 33757,6950.187,96.107,573.996,570.108,0.0
55755.0,STARLINK-5619,PAYLOAD,2023-10-08 18:51:33,14.98330776,0.0002778,69.9982,310.4051,270.1571,89.927,3.9752e-05,3.81e-06,0.0,0 STARLINK-5619,1 55755U 23028Q   23281.78580721  .00000381  00000-0  39752-4 0  9998,2 55755  69.9982 310.4051 0002778 270.1571  89.9270 14.98330776 33798,6950.19,96.107,573.986,570.125,0.0
55755.0,STARLINK-5619,PAYLOAD,2023-10-09 12:29:02,14.98331368,0.000235,69.9978,308.553,265.9799,94.1092,0.00014092,1.589e-05,0.0,0 STARLINK-5619,1 55755U 23028Q   23282.52016400  .00001589  00000-0  14092-3 0  9999,2 55755  69.9978 308.5530 0002350 265.9799  94.1092 14.98331368 33904,6950.189,96.107,573.687,570.42,0.0
55755.0,STARLINK-5619,PAYLOAD,2023-10-10 10:54:55,14.98331686,0.0002703,69.9978,306.1956,268.0548,92.0301,4.3839e-05,4.3e-06,0.0,0 STARLINK-5619,1 55755U 23028Q   23283.45480448  .00000430  00000-0  43839-4 0  9995,2 55755  69.9978 306.1956 0002703 268.0548  92.0301 14.98331686 34047,6950.188,96.107,573.931,570.174,0.0
55755.0,STARLINK-5619,PAYLOAD,2023-10-10 18:55:34,14.98386138,0.0003022,69.9979,305.3544,265.1782,94.9032,-0.00095657,-0.00011505,0.0,0 STARLINK-5619,1 55755U 23028Q   23283.78858935 -.00011505  00000-0 -95657-3 0  9992,2 55755  69.9979 305.3544 0003022 265.1782  94.9032 14.98386138 34094,6950.019,96.103,573.985,569.784,0.0
55755.0,STARLINK-5619,PAYLOAD,2023-10-11 02:56:15,14.983274,0.0002803,69.9984,304.5129,268.7881,91.2957,1.61e-05,9.9e-07,0.0,0 STARLINK-5619,1 55755U 23028Q   23284.12240719  .00000099  00000-0  16100-4 0  9997,2 55755  69.9984 304.5129 0002803 268.7881  91.2957 14.98327400 34144,6950.201,96.107,574.014,570.118,0.0
